*******************************************************************************
Ephemeris / WWW_USER Mon Mar 10 07:40:23 2025 Pasadena, USA      / Horizons    
*******************************************************************************
Target body name: 584778 (2017 RG16)              {source: JPL#32}
Center body name: Earth (399)                     {source: DE441}
Center-site name: Mauna Kea
*******************************************************************************
Start time      : A.D. 2018-Sep-04 04:44:00.0000 UT      
Stop  time      : A.D. 2018-Sep-04 15:57:00.0000 UT      
Step-size       : 1 minutes
*******************************************************************************
Target pole/equ : undefined
Target radii    : undefined                                                    
Center geodetic : 204.5278, 19.8260847, 4.21024   {E-lon(deg),Lat(deg),Alt(km)}
Center cylindric: 204.5278, 6006.35451, 2151.0229 {E-lon(deg),Dxy(km),Dz(km)}
Center pole/equ : ITRF93                          {East-longitude positive}
Center radii    : 6378.137, 6378.137, 6356.752 km {Equator_a, b, pole_c}       
Target primary  : Sun
Vis. interferer : MOON (R_eq= 1737.400) km        {source: DE441}
Rel. light bend : Sun                             {source: DE441}
Rel. lght bnd GM: 1.3271E+11 km^3/s^2                                          
Small-body perts: Yes                             {source: SB441-N16}
Atmos refraction: NO (AIRLESS)
RA format       : HMS
Time format     : CAL 
Calendar mode   : Mixed Julian/Gregorian
RTS-only print  : NO       
EOP file        : eop.250307.p250603                                           
EOP coverage    : DATA-BASED 1962-JAN-20 TO 2025-MAR-07. PREDICTS-> 2025-JUN-02
Units conversion: 1 au= 149597870.700 km, c= 299792.458 km/s, 1 day= 86400.0 s 
Table cut-offs 1: Elevation (-90.0deg=NO ),Airmass (>38.000=NO), Daylight (YES)
Table cut-offs 2: Solar elongation (  0.0,180.0=NO ),Local Hour Angle( 0.0=NO )
Table cut-offs 3: RA/DEC angular rate (     0.0=NO )                           
*******************************************************************************
Initial IAU76/J2000 heliocentric ecliptic osculating elements (au, days, deg.):
  EPOCH=  2458734.5 ! 2019-Sep-08.00 (TDB)         Residual RMS= .14786        
   EC= .9085798704456644   QR= 7.106644157383132   TP= 2457926.6828443832      
   OM= .547367620295521    W=  323.0265763955561   IN= 74.86683883750447       
  Equivalent ICRF heliocentric cartesian coordinates (au, au/d):
   X= 8.360714527577798E+00  Y=-2.241293784086399E-01  Z= 2.069107023705337E+00
  VX= 1.416407206608659E-03 VY=-1.132497676729848E-03 VZ= 7.848232694960624E-03
Asteroid physical parameters (km, seconds, rotational period in hours):        
   GM= n.a.                RAD= n.a.               ROTPER= n.a.                
   H= 11.32                G= .150                 B-V= n.a.                   
                           ALBEDO= n.a.            STYP= n.a.                  
*******************************************************************************
 Date__(UT)__HR:MN     R.A._________(ICRF)_________DEC
******************************************************
$$SOE
 2018-Sep-04 12:56  m  00 16 54.748144 -06 20 25.28672
 2018-Sep-04 12:57  m  00 16 54.724857 -06 20 25.26241
 2018-Sep-04 12:58  m  00 16 54.701571 -06 20 25.23811
 2018-Sep-04 12:59  m  00 16 54.678284 -06 20 25.21380
 2018-Sep-04 13:00  m  00 16 54.654998 -06 20 25.18949
 2018-Sep-04 13:01  m  00 16 54.631713 -06 20 25.16518
 2018-Sep-04 13:02  m  00 16 54.608428 -06 20 25.14087
 2018-Sep-04 13:03  m  00 16 54.585143 -06 20 25.11655
 2018-Sep-04 13:04  m  00 16 54.561859 -06 20 25.09223
 2018-Sep-04 13:05  m  00 16 54.538575 -06 20 25.06791
 2018-Sep-04 13:06  m  00 16 54.515291 -06 20 25.04358
 2018-Sep-04 13:07  m  00 16 54.492008 -06 20 25.01926
 2018-Sep-04 13:08  m  00 16 54.468726 -06 20 24.99493
 2018-Sep-04 13:09  m  00 16 54.445444 -06 20 24.97060
 2018-Sep-04 13:10  m  00 16 54.422162 -06 20 24.94626
 2018-Sep-04 13:11  m  00 16 54.398881 -06 20 24.92193
 2018-Sep-04 13:12  m  00 16 54.375600 -06 20 24.89759
 2018-Sep-04 13:13  m  00 16 54.352320 -06 20 24.87325
 2018-Sep-04 13:14  m  00 16 54.329040 -06 20 24.84890
 2018-Sep-04 13:15  m  00 16 54.305760 -06 20 24.82456
 2018-Sep-04 13:16  m  00 16 54.282481 -06 20 24.80021
 2018-Sep-04 13:17  m  00 16 54.259203 -06 20 24.77586
 2018-Sep-04 13:18  m  00 16 54.235925 -06 20 24.75151
 2018-Sep-04 13:19  m  00 16 54.212648 -06 20 24.72715
 2018-Sep-04 13:20  m  00 16 54.189371 -06 20 24.70280
 2018-Sep-04 13:21  m  00 16 54.166095 -06 20 24.67844
 2018-Sep-04 13:22  m  00 16 54.142819 -06 20 24.65407
 2018-Sep-04 13:23  m  00 16 54.119544 -06 20 24.62971
 2018-Sep-04 13:24  m  00 16 54.096269 -06 20 24.60534
 2018-Sep-04 13:25  m  00 16 54.072995 -06 20 24.58097
 2018-Sep-04 13:26  m  00 16 54.049721 -06 20 24.55660
 2018-Sep-04 13:27  m  00 16 54.026448 -06 20 24.53223
 2018-Sep-04 13:28  m  00 16 54.003175 -06 20 24.50785
 2018-Sep-04 13:29  m  00 16 53.979904 -06 20 24.48347
 2018-Sep-04 13:30  m  00 16 53.956632 -06 20 24.45909
 2018-Sep-04 13:31  m  00 16 53.933361 -06 20 24.43471
 2018-Sep-04 13:32  m  00 16 53.910091 -06 20 24.41032
 2018-Sep-04 13:33  m  00 16 53.886822 -06 20 24.38594
 2018-Sep-04 13:34  m  00 16 53.863553 -06 20 24.36155
 2018-Sep-04 13:35  m  00 16 53.840284 -06 20 24.33715
 2018-Sep-04 13:36  m  00 16 53.817017 -06 20 24.31276
 2018-Sep-04 13:37  m  00 16 53.793749 -06 20 24.28836
 2018-Sep-04 13:38  m  00 16 53.770483 -06 20 24.26396
 2018-Sep-04 13:39  m  00 16 53.747217 -06 20 24.23956
 2018-Sep-04 13:40  m  00 16 53.723952 -06 20 24.21516
 2018-Sep-04 13:41  m  00 16 53.700687 -06 20 24.19075
 2018-Sep-04 13:42  m  00 16 53.677423 -06 20 24.16634
 2018-Sep-04 13:43  m  00 16 53.654160 -06 20 24.14193
 2018-Sep-04 13:44  m  00 16 53.630898 -06 20 24.11752
 2018-Sep-04 13:45  m  00 16 53.607636 -06 20 24.09311
 2018-Sep-04 13:46  m  00 16 53.584374 -06 20 24.06869
 2018-Sep-04 13:47  m  00 16 53.561114 -06 20 24.04427
 2018-Sep-04 13:48  m  00 16 53.537854 -06 20 24.01985
 2018-Sep-04 13:49  m  00 16 53.514595 -06 20 23.99543
 2018-Sep-04 13:50  m  00 16 53.491336 -06 20 23.97100
 2018-Sep-04 13:51  m  00 16 53.468079 -06 20 23.94657
 2018-Sep-04 13:52  m  00 16 53.444822 -06 20 23.92214
 2018-Sep-04 13:53  m  00 16 53.421565 -06 20 23.89771
 2018-Sep-04 13:54  m  00 16 53.398310 -06 20 23.87327
 2018-Sep-04 13:55  m  00 16 53.375055 -06 20 23.84884
 2018-Sep-04 13:56  m  00 16 53.351801 -06 20 23.82440
 2018-Sep-04 13:57  m  00 16 53.328547 -06 20 23.79996
 2018-Sep-04 13:58  m  00 16 53.305295 -06 20 23.77551
 2018-Sep-04 13:59  m  00 16 53.282043 -06 20 23.75107
 2018-Sep-04 14:00  m  00 16 53.258792 -06 20 23.72662
 2018-Sep-04 14:01  m  00 16 53.235541 -06 20 23.70217
 2018-Sep-04 14:02  m  00 16 53.212292 -06 20 23.67772
 2018-Sep-04 14:03  m  00 16 53.189043 -06 20 23.65327
 2018-Sep-04 14:04  m  00 16 53.165795 -06 20 23.62881
 2018-Sep-04 14:05  m  00 16 53.142548 -06 20 23.60435
 2018-Sep-04 14:06  m  00 16 53.119301 -06 20 23.57989
 2018-Sep-04 14:07  m  00 16 53.096056 -06 20 23.55543
 2018-Sep-04 14:08  m  00 16 53.072811 -06 20 23.53096
 2018-Sep-04 14:09  m  00 16 53.049567 -06 20 23.50650
 2018-Sep-04 14:10  m  00 16 53.026324 -06 20 23.48203
 2018-Sep-04 14:11  m  00 16 53.003081 -06 20 23.45756
 2018-Sep-04 14:12  m  00 16 52.979840 -06 20 23.43309
 2018-Sep-04 14:13  m  00 16 52.956599 -06 20 23.40861
 2018-Sep-04 14:14  m  00 16 52.933359 -06 20 23.38413
 2018-Sep-04 14:15  m  00 16 52.910120 -06 20 23.35966
 2018-Sep-04 14:16  m  00 16 52.886882 -06 20 23.33517
 2018-Sep-04 14:17  m  00 16 52.863645 -06 20 23.31069
 2018-Sep-04 14:18  m  00 16 52.840408 -06 20 23.28621
 2018-Sep-04 14:19  m  00 16 52.817173 -06 20 23.26172
 2018-Sep-04 14:20  m  00 16 52.793938 -06 20 23.23723
 2018-Sep-04 14:21  m  00 16 52.770704 -06 20 23.21274
 2018-Sep-04 14:22  m  00 16 52.747471 -06 20 23.18825
 2018-Sep-04 14:23  m  00 16 52.724239 -06 20 23.16375
 2018-Sep-04 14:24  m  00 16 52.701008 -06 20 23.13925
 2018-Sep-04 14:25  m  00 16 52.677778 -06 20 23.11476
 2018-Sep-04 14:26  m  00 16 52.654549 -06 20 23.09026
 2018-Sep-04 14:27  m  00 16 52.631320 -06 20 23.06575
 2018-Sep-04 14:28  m  00 16 52.608093 -06 20 23.04125
 2018-Sep-04 14:29  m  00 16 52.584866 -06 20 23.01674
 2018-Sep-04 14:30  m  00 16 52.561640 -06 20 22.99223
 2018-Sep-04 14:31  m  00 16 52.538416 -06 20 22.96772
 2018-Sep-04 14:32  m  00 16 52.515192 -06 20 22.94321
 2018-Sep-04 14:33  m  00 16 52.491969 -06 20 22.91869
 2018-Sep-04 14:34  m  00 16 52.468747 -06 20 22.89418
 2018-Sep-04 14:35  m  00 16 52.445526 -06 20 22.86966
 2018-Sep-04 14:36  m  00 16 52.422306 -06 20 22.84514
 2018-Sep-04 14:37  m  00 16 52.399087 -06 20 22.82062
 2018-Sep-04 14:38  m  00 16 52.375869 -06 20 22.79609
 2018-Sep-04 14:39  m  00 16 52.352652 -06 20 22.77157
 2018-Sep-04 14:40  m  00 16 52.329436 -06 20 22.74704
 2018-Sep-04 14:41  m  00 16 52.306221 -06 20 22.72251
 2018-Sep-04 14:42  m  00 16 52.283007 -06 20 22.69798
 2018-Sep-04 14:43  m  00 16 52.259794 -06 20 22.67345
 2018-Sep-04 14:44  m  00 16 52.236582 -06 20 22.64891
 2018-Sep-04 14:45  m  00 16 52.213371 -06 20 22.62437
 2018-Sep-04 14:46  m  00 16 52.190161 -06 20 22.59984
 2018-Sep-04 14:47  m  00 16 52.166952 -06 20 22.57530
 2018-Sep-04 14:48  m  00 16 52.143744 -06 20 22.55075
 2018-Sep-04 14:49  m  00 16 52.120537 -06 20 22.52621
 2018-Sep-04 14:50  m  00 16 52.097331 -06 20 22.50166
 2018-Sep-04 14:51  m  00 16 52.074126 -06 20 22.47712
 2018-Sep-04 14:52  m  00 16 52.050922 -06 20 22.45257
 2018-Sep-04 14:53 Am  00 16 52.027719 -06 20 22.42802
 2018-Sep-04 14:54 Am  00 16 52.004517 -06 20 22.40346
 2018-Sep-04 14:55 Am  00 16 51.981317 -06 20 22.37891
 2018-Sep-04 14:56 Am  00 16 51.958117 -06 20 22.35435
 2018-Sep-04 14:57 Am  00 16 51.934918 -06 20 22.32979
 2018-Sep-04 14:58 Am  00 16 51.911721 -06 20 22.30523
